253P/PANSTARRS,e,4.9404,146.8833,230.7303,3.469334,0.1525228,0.41292598,357.4452,04/21.0/2018,2000,g 14.5,4.0
# From MPC 81473
254P/McNaught,e,32.4688,129.4030,219.1911,4.626068,0.0990572,0.32192439,271.6295,04/21.0/2018,2000,g 11.0,4.0
# From NK 2214
255P/Levy,e,18.2703,279.6401,179.7768,3.039043,0.1860368,0.66806533,65.6395,04/21.0/2018,2000,g 20.0,4.0
# From MPC 84027
256P/LINEAR,e,27.6365,81.3553,124.2924,4.633784,0.0988099,0.41941603,183.7125,04/21.0/2018,2000,g 14.0,2.0
# From MPC 88332
257P/Catalina,e,20.2399,207.7810,117.8483,3.757567,0.1353144,0.43074185,241.6751,04/21.0/2018,2000,g 11.5,4.0
# From MPC 79655
258P/PANSTARRS,e,6.7439,126.2641,26.1171,4.404832,0.1066130,0.20987410,275.7271,04/21.0/2018,2000,g 13.0,4.0
# From MPC106349
259P/Garradd,e,15.8897,51.4831,257.5151,2.731866,0.2182806,0.33783561,56.7394,04/21.0/2018,2000,g 15.5,4.0
# From MPC102102
260P/McNaught,e,15.0820,349.6726,17.9544,3.630063,0.1425059,0.60942561,287.8112,04/21.0/2018,2000,g 13.5,4.0
# From MPC102102
261P/Larson,e,6.0701,291.2027,66.9311,3.492469,0.1510098,0.42305421,296.0775,04/21.0/2018,2000,g 14.0,4.0
# From MPC 82322
262P/McNaught-Russell,e,29.1109,217.9428,171.0411,6.884182,0.0545664,0.81425689,107.3566,04/21.0/2018,2000,g 13.5,4.0
# From MPC 82323
263P/Gibbs,e,11.5326,105.8188,34.6108,3.061554,0.1839887,0.58758692,37.3749,04/21.0/2018,2000,g 18.0,4.0
# From MPC102102
264P/Larsen,e,25.1507,220.9057,346.5691,3.895119,0.1282103,0.37379366,299.6412,04/21.0/2018,2000,g 13.0,4.0
# From MPC 79870
265P/LINEAR,e,14.4484,343.7669,33.0926,4.232441,0.1131925,0.64980314,243.9738,04/21.0/2018,2000,g 14.5,4.0
# From MPC 90771
266P/Christensen,e,3.4278,5.0036,97.9755,3.532686,0.1484385,0.33944666,251.6784,04/21.0/2018,2000,g 12.5,4.0
# From MPC 81862
267P/LONEOS,e,6.1380,228.6892,114.0769,3.212093,0.1712072,0.61360604,344.1950,04/21.0/2018,2000,g 19.5,4.0
# From MPC 92277
268P/Bernardi,e,16.1030,127.6034,0.2611,4.558203,0.1012776,0.46951762,110.4589,04/21.0/2018,2000,g 14.0,4.0
# From MPC104795
269P/Jedicke,e,7.0626,241.7234,226.1159,7.095962,0.0521419,0.43459991,67.1654,04/21.0/2018,2000,g 10.0,4.0
# From MPC 88332
270P/Gehrels,e,2.9163,222.9591,210.1400,6.676278,0.0571350,0.46791958,101.2530,04/21.0/2018,2000,g  8.0,4.0
# From MPC 92277
271P/van Houten-Lemmon,e,6.8573,9.2915,36.7311,7.061041,0.0525292,0.39262740,91.6511,04/21.0/2018,2000,g 11.0,4.0
# From MPC 81862
272P/NEAT,e,18.0820,109.4852,28.0937,4.449515,0.1050111,0.45477734,197.4026,04/21.0/2018,2000,g 16.0,2.0
# From MPC 82723
273P/Pons-Gambart,e,136.5456,320.4041,20.1959,31.56039,0.0055589,0.97413025,0.0000,12/16.9618/2012,2000,g 11.5,4.0
# From MPC 88332
274P/Tombaugh-Tenagra,e,15.8192,81.3437,38.6236,4.367065,0.1079989,0.43885407,203.4747,04/21.0/2018,2000,g 13.0,4.0
# From MPC 81862
275P/Hermann,e,21.3290,348.7365,174.1413,5.767252,0.0711624,0.71373883,138.1199,04/21.0/2018,2000,g 15.0,4.0
# From MPC 84935
276P/Vorobjov,e,14.9550,211.6966,201.0801,5.285199,0.0811170,0.27290520,161.7102,04/21.0/2018,2000,g 11.5,4.0
# From MPC105243
277P/LINEAR,e,16.7610,276.3371,152.1486,3.857296,0.1301007,0.50408365,231.8408,04/21.0/2018,2000,g 14.0,4.0
# From MPC105243
278P/McNaught,e,6.6837,15.4787,237.9445,3.696063,0.1387059,0.43464223,238.6410,04/21.0/2018,2000,g 14.0,4.0
# From MPC 10028
279P/La Sagra,e,5.0468,346.2335,5.8108,3.578837,0.1455764,0.39703881,93.9860,04/21.0/2018,2000,g 14.0,4.0
# From MPC 89013
280P/Larsen,e,11.7699,131.4494,104.6761,4.528183,0.1022865,0.41852465,162.6956,04/21.0/2018,2000,g 12.5,4.0
# From MPC 83145
281P/MOSS,e,4.7201,87.1753,27.2331,4.864630,0.0918606,0.17170114,199.0253,04/21.0/2018,2000,g 11.0,4.0
# From unp
282P/,e,5.8093,9.3450,217.1895,4.248830,0.1125382,0.18949636,215.9511,04/21.0/2018,2000,g 13.5,2.0
# From MPC 84027
283P/Spacewatch,e,14.4617,161.1882,22.2655,4.137539,0.1171092,0.48581193,215.3395,04/21.0/2018,2000,g 16.0,2.0
# From MPC 93589
284P/McNaught,e,11.8598,144.2929,202.7912,3.672422,0.1400475,0.37568861,185.9993,04/21.0/2018,2000,g 13.0,4.0
# From MPC 85339
285P/LINEAR,e,25.0110,185.4749,178.4597,4.509213,0.1029326,0.61742478,181.9430,04/21.0/2018,2000,g 15.0,4.0
# From MPC 90771
286P/Christensen,e,17.0388,283.9479,24.6871,4.115253,0.1180618,0.42417446,184.8605,04/21.0/2018,2000,g 14.0,4.0
# From MPC 96868
287P/Christensen,e,16.3069,139.0327,188.8315,4.172676,0.1156331,0.26933752,139.9641,04/21.0/2018,2000,g 13.5,4.0
# From unp
288P/,e,3.2403,83.1868,280.9384,3.048123,0.1852061,0.20107717,97.9999,04/21.0/2018,2000,g 16.0,2.0
# From MPC102102
289P/Blanpain,e,5.8980,68.9305,9.8128,3.045831,0.1854152,0.68469293,247.0468,04/21.0/2018,2000,g 10.0,4.0
# From MPC 95214
290P/Jager,e,19.0894,303.3595,180.8466,6.131586,0.0649150,0.64754865,97.4451,04/21.0/2018,2000,g 10.5,4.0
# From MPC 89314
291P/NEAT,e,6.3222,238.4215,175.6106,4.470889,0.1042589,0.44488047,166.3555,04/21.0/2018,2000,g 13.0,4.0
# From MPC 93589
292P/Li,e,24.2516,91.0048,319.5988,6.117329,0.0651420,0.58742527,100.3221,04/21.0/2018,2000,g 12.5,4.0
# From MPC 92278
293P/Spacewatch,e,9.0576,78.4139,41.1970,3.639980,0.1419239,0.41835925,221.8338,04/21.0/2018,2000,g 14.5,4.0
# From MPC 89013
294P/LINEAR,e,18.2129,312.6239,235.4971,3.205787,0.1717126,0.59442865,259.1002,04/21.0/2018,2000,g 15.5,4.0
# From MPC 93589
295P/LINEAR,e,21.1053,7.5718,73.0131,5.310648,0.0805347,0.61647405,115.9207,04/21.0/2018,2000,g 12.0,4.0
# From MPC 92278
296P/Garradd,e,25.2309,263.6380,350.0288,3.499530,0.1505530,0.47832006,227.3909,04/21.0/2018,2000,g 14.0,4.0
# From MPC102956
297P/Beshore,e,10.3263,97.6650,132.3350,3.445506,0.1541078,0.31946673,204.7855,04/21.0/2018,2000,g 15.0,4.0
# From MPC105243
298P/Christensen,e,7.8722,52.8279,100.7664,3.592273,0.1447605,0.38743253,234.1706,04/21.0/2018,2000,g 15.0,4.0
# From MPC101100
299P/Catalina-PANSTARRS,e,10.4763,271.6383,323.7554,4.380298,0.1075099,0.28278498,123.8026,04/21.0/2018,2000,g 11.5,4.0
# From MPC 89314
300P/Catalina,e,5.6758,95.6798,222.8572,2.699513,0.2222163,0.69155813,316.6516,04/21.0/2018,2000,g 16.0,4.0
# From MPC 89014
301P/LINEAR-NEAT,e,10.3615,351.1702,193.6960,5.732946,0.0718021,0.58704974,95.2844,04/21.0/2018,2000,g 13.0,4.0
# From MPC108598
302P/Lemmon-PANSTARRS,e,6.0310,121.7618,208.1995,4.280169,0.1113045,0.22884621,80.2345,04/21.0/2018,2000,g 12.5,4.0
# From MPC 92278
303P/NEAT,e,7.0066,347.9963,356.8757,5.054839,0.0867248,0.50869267,111.5153,04/21.0/2018,2000,g 13.5,4.0
# From MPC 92987
304P/Ory,e,2.7735,58.6005,335.2009,3.147372,0.1765152,0.61662142,214.1125,04/21.0/2018,2000,g 16.5,4.0
# From MPC101100
305P/Skiff,e,11.6357,240.1518,147.3135,4.647548,0.0983713,0.69240354,123.1505,04/21.0/2018,2000,g 18.0,4.0
# From MPC 92278
306P/LINEAR,e,8.3196,341.4635,0.8382,3.118765,0.1789494,0.59377761,245.1458,04/21.0/2018,2000,g 19.0,4.0
# From MPC 91619
307P/LINEAR,e,4.4253,158.0916,222.2974,5.802450,0.0705159,0.67308311,85.9490,04/21.0/2018,2000,g 15.0,4.0
# From MPC109148
308P/Lagerkvist-Carsenty,e,4.8489,63.1368,333.8812,6.620286,0.0578614,0.36203428,62.5578,04/21.0/2018,2000,g 13.0,2.0
# From MPC 94284
309P/LINEAR,e,17.1615,10.5319,49.8361,4.368899,0.1079310,0.61961361,125.0399,04/21.0/2018,2000,g 15.0,4.0
# From MPC 98566
310P/Hill,e,13.1550,8.9733,31.9651,4.172671,0.1156333,0.42345499,127.1476,04/21.0/2018,2000,g 13.5,4.0
# From MPC109593
311P/PANSTARRS,e,4.9668,279.2572,143.9798,2.188489,0.3044301,0.11552072,86.5770,04/21.0/2018,2000,g 17.0,4.0
# From MPC 92279
312P/NEAT,e,19.7716,144.8403,207.6629,3.461671,0.1530296,0.42930863,224.0903,04/21.0/2018,2000,g 16.0,4.0
# From MPC 92987
313P/Gibbs,e,10.9524,106.1504,254.0923,3.165980,0.1749612,0.23730223,233.5857,04/21.0/2018,2000,g 15.0,4.0
# From MPC105243
314P/Montani,e,3.9779,267.6575,213.9851,7.273256,0.0502471,0.41751224,28.0739,04/21.0/2018,2000,g  9.5,4.0
# From MPC105243
315P/LONEOS,e,17.9560,69.4774,67.1122,5.020391,0.0876189,0.51898945,43.8148,04/21.0/2018,2000,g 11.0,4.0
# From MPC 92279
316P/LONEOS-Christensen,e,9.9018,246.7927,192.7950,4.316010,0.1099209,0.16788977,98.9525,04/21.0/2018,2000,g 13.5,4.0
# From MPC102103
317P/WISE,e,11.9463,275.5235,334.8419,2.967082,0.1928456,0.57032744,188.5548,04/21.0/2018,2000,g 17.5,4.0
# From MPC102103
318P/McNaught-Hartley,e,17.8705,35.7242,313.1172,7.500638,0.0479796,0.67402843,43.7414,04/21.0/2018,2000,g  8.5,6.0
# From MPC 97499
319P/Catalina-McNaught,e,15.0854,111.3604,203.6027,3.571434,0.1460294,0.66559378,149.5509,04/21.0/2018,2000,g 15.0,4.0
# From MPC 95736
320P/McNaught,e,4.9046,295.9178,0.7366,3.096065,0.1809210,0.68514205,178.6459,04/21.0/2018,2000,g 20.5,4.0
# From MPEC 2017-L52
321P/SOHO,e,20.0116,165.0534,172.7113,2.422527,0.2613973,0.98099651,0.0000,01/17.3662/2020,2000,g 20.0,4.0
# From MPC 94284
321P/SOHO,e,20.1580,165.2061,172.5535,2.422508,0.2614004,0.98104053,0.0000,01/17.3385/2020,2000,g 20.0,4.0
# From MPC102103
322P/SOHO,e,11.9783,355.7973,52.6932,2.513586,0.2473224,0.97987670,0.0000,08/30.9441/2019,2000,g 19.0,4.0
# From MPC102957
323P/SOHO,e,4.6774,322.9994,354.3237,2.583164,0.2373975,0.98467539,0.0000,11/23.5986/2016,2000,g 20.0,4.0
# From MPC108598
324P/La Sagra,e,21.4230,270.6386,58.3457,3.094272,0.1810783,0.15406308,158.2229,04/21.0/2018,2000,g 13.0,4.0
# From MPC 95736
325P/Yang-Gao,e,16.7001,257.5844,343.6364,3.524160,0.1489775,0.59403455,145.9221,04/21.0/2018,2000,g 14.0,4.0
# From MPC103849
326P/Hill,e,2.4707,99.8121,278.7260,4.067293,0.1201561,0.31672880,109.5809,04/21.0/2018,2000,g 13.5,4.0
# From MPC 97499
327P/Van Ness,e,36.2143,173.9628,185.0604,3.564623,0.1464481,0.56213273,126.0816,04/21.0/2018,2000,g 16.0,4.0
# From MPC109148
328P/LONEOS-Tucker,e,17.6499,341.5989,30.5747,4.199868,0.1145119,0.55074826,97.2448,04/21.0/2018,2000,g 14.5,4.0
# From MPC101101
329P/LINEAR-Catalina,e,21.6188,87.8162,343.4808,5.197991,0.0831670,0.67883809,72.2341,04/21.0/2018,2000,g 13.5,4.0
# From MPC105243
330P/Catalina,e,15.5646,293.9561,187.6540,6.615999,0.0579176,0.55290443,34.6141,04/21.0/2018,2000,g 12.0,4.0
# From MPC 98566
